{
  "type" : "FeatureCollection",
  "features" : [{"type":"Feature","id":1,"geometry":{"type":"Point","coordinates":[-83.236244566999972,35.524349353000048]},"properties":{"OBJECTID_1":1,"OBJECTID":1,"LOC_NAME":"Barnett Knob","TRAIL":"Chambers Cemetery Access","ROAD":"Tow String Road","NOTES":" ","ELEVATION":4653,"X_COORD":297233,"Y_COORD":3933493,"LON":-83.236240550000005,"LAT":35.524342529999998,"DATAACCESS":"Internal NPS Only","MAPMETHOD":"Unknown","SOURCEDATE":" ","XYACCURACY":"\u003e=1m and \u003c5m","VALID_RESU":"Certified","GlobalID":"c5e909cf-69f6-46fd-a544-8d4711853941"}},{"type":"Feature","id":2,"geometry":{"type":"Point","coordinates":[-83.334307293999984,35.496068543000035]},"properties":{"OBJECTID_1":2,"OBJECTID":2,"LOC_NAME":"Mount Noble Fire Tower","TRAIL":"Mingus Creek Trail","ROAD":"Newfound Gap Road South","NOTES":" ","ELEVATION":3830,"X_COORD":288265,"Y_COORD":3930562,"LON":-83.33430328,"LAT":35.496061689999998,"DATAACCESS":"Internal NPS Only","MAPMETHOD":"Unknown","SOURCEDATE":" ","XYACCURACY":"\u003e=1m and \u003c5m","VALID_RESU":"Certified","GlobalID":"082fd562-38a1-4f9b-a0e2-6558850c43e1"}},{"type":"Feature","id":3,"geometry":{"type":"Point","coordinates":[-83.501935854999942,35.68911607800004]},"properties":{"OBJECTID_1":3,"OBJECTID":3,"LOC_NAME":"NEON Tower","TRAIL":"Twin Creeks Trail","ROAD":"Cherokee Orchard Road","NOTES":" ","ELEVATION":1890,"X_COORD":273602,"Y_COORD":3952352,"LON":-83.501931799999994,"LAT":35.689109199999997,"DATAACCESS":"Internal NPS Only","MAPMETHOD":"Unknown","SOURCEDATE":" ","XYACCURACY":"\u003e=1m and \u003c5m","VALID_RESU":"Certified","GlobalID":"93d9c6fb-7adf-444c-a7c8-589331c26197"}},{"type":"Feature","id":4,"geometry":{"type":"Point","coordinates":[-83.498383045999958,35.56287055100006]},"properties":{"OBJECTID_1":4,"OBJECTID":4,"LOC_NAME":"Clingmans Dome Tower","TRAIL":"Clingmans Dome Trail","ROAD":"Clingmans Dome Access Road","NOTES":" ","ELEVATION":6643,"X_COORD":273568,"Y_COORD":3938338,"LON":-83.498379009999994,"LAT":35.562863729999997,"DATAACCESS":"Unrestricted","MAPMETHOD":"Unknown","SOURCEDATE":" ","XYACCURACY":"\u003e=1m and \u003c5m","VALID_RESU":"Certified","GlobalID":"6b46c394-9270-487a-b42a-ec283b7ff759"}},{"type":"Feature","id":5,"geometry":{"type":"Point","coordinates":[-83.122989443999984,35.702288795000072]},"properties":{"OBJECTID_1":5,"OBJECTID":5,"LOC_NAME":"Mt. Sterling Lookout Tower","TRAIL":"Baxter Creek Trail","ROAD":"Old Cataloochee Turnpike","NOTES":" ","ELEVATION":5798,"X_COORD":307930,"Y_COORD":3953005,"LON":-83.122985510000007,"LAT":35.702281910000004,"DATAACCESS":"Unrestricted","MAPMETHOD":"Unknown","SOURCEDATE":" ","XYACCURACY":"\u003e=1m and \u003c5m","VALID_RESU":"Certified","GlobalID":"1e122f7a-b1a8-4f21-b4fe-61f6a3fadff1"}},{"type":"Feature","id":6,"geometry":{"type":"Point","coordinates":[-83.943060179999975,35.632561448000047]},"properties":{"OBJECTID_1":6,"OBJECTID":6,"LOC_NAME":"Look Rock Tower","TRAIL":"Look Rock Developed Trail","ROAD":"Foothills Parkway Section 8g","NOTES":" ","ELEVATION":2640,"X_COORD":233486,"Y_COORD":3947184,"LON":-83.943055970000003,"LAT":35.63255461,"DATAACCESS":"Unrestricted","MAPMETHOD":"Unknown","SOURCEDATE":" ","XYACCURACY":"\u003e=1m and \u003c5m","VALID_RESU":"Certified","GlobalID":"1f03031f-57f1-4e76-9aa1-4e322d1f42ef"}},{"type":"Feature","id":7,"geometry":{"type":"Point","coordinates":[-83.815123333999964,35.485589323000056]},"properties":{"OBJECTID_1":7,"OBJECTID":7,"LOC_NAME":"Shuckstack","TRAIL":"Appalachian Trail","ROAD":"Payne Cemetery Access Road","NOTES":" ","ELEVATION":4004,"X_COORD":244609,"Y_COORD":3930538,"LON":-83.815119240000001,"LAT":35.485582450000003,"DATAACCESS":"Unrestricted","MAPMETHOD":"Unknown","SOURCEDATE":" ","XYACCURACY":"\u003e=1m and \u003c5m","VALID_RESU":"Certified","GlobalID":"b64098b1-cec6-41d7-923d-faba2da92f37"}},{"type":"Feature","id":8,"geometry":{"type":"Point","coordinates":[-83.609712186999957,35.696633373000054]},"properties":{"OBJECTID_1":8,"OBJECTID":8,"LOC_NAME":"Cove Mountain Fire Tower","TRAIL":"Cove Mountain Trail","ROAD":"Little Greenbrier School Unpaved Parking","NOTES":" ","ELEVATION":4076,"X_COORD":263869,"Y_COORD":3953440,"LON":-83.609708060000003,"LAT":35.696626449999997,"DATAACCESS":"Unrestricted","MAPMETHOD":"Unknown","SOURCEDATE":" ","XYACCURACY":"\u003e=1m and \u003c5m","VALID_RESU":"Certified","GlobalID":"16ac0667-fe35-4b97-9fc0-a4c33145f33c"}},{"type":"Feature","id":9,"geometry":{"type":"Point","coordinates":[-83.161340758999984,35.763524306000079]},"properties":{"OBJECTID_1":9,"OBJECTID":9,"LOC_NAME":"Mt. Cammerer Lookout Tower","TRAIL":"Mount Cammerer Trail","ROAD":"Cosby Campground Road B","NOTES":" ","ELEVATION":4912,"X_COORD":304609,"Y_COORD":3959874,"LON":-83.161336800000001,"LAT":35.763517389999997,"DATAACCESS":"Unrestricted","MAPMETHOD":"Unknown","SOURCEDATE":" ","XYACCURACY":"\u003e=1m and \u003c5m","VALID_RESU":"Certified","GlobalID":"7ca29112-fa94-4101-8ca5-53771f6c52ed"}},{"type":"Feature","id":10,"geometry":{"type":"Point","coordinates":[-83.236244566999972,35.524349353000048]},"properties":{"OBJECTID_1":10,"OBJECTID":10,"LOC_NAME":"Barnett Knob","TRAIL":"Chambers Cemetery Access","ROAD":"Tow String Road","NOTES":" ","ELEVATION":4653,"X_COORD":297233,"Y_COORD":3933493,"LON":-83.236240550000005,"LAT":35.524342529999998,"DATAACCESS":"Internal NPS Only","MAPMETHOD":"Unknown","SOURCEDATE":" ","XYACCURACY":"\u003e=1m and \u003c5m","VALID_RESU":"Certified","GlobalID":"038ee6dc-0ec1-4827-9d6c-d5d10b76bef4"}},{"type":"Feature","id":11,"geometry":{"type":"Point","coordinates":[-83.334307293999984,35.496068543000035]},"properties":{"OBJECTID_1":11,"OBJECTID":11,"LOC_NAME":"Mount Noble Fire Tower","TRAIL":"Mingus Creek Trail","ROAD":"Newfound Gap Road South","NOTES":" ","ELEVATION":3830,"X_COORD":288265,"Y_COORD":3930562,"LON":-83.33430328,"LAT":35.496061689999998,"DATAACCESS":"Internal NPS Only","MAPMETHOD":"Unknown","SOURCEDATE":" ","XYACCURACY":"\u003e=1m and \u003c5m","VALID_RESU":"Certified","GlobalID":"3deb84ed-a451-40c2-9c46-38898c411db5"}},{"type":"Feature","id":12,"geometry":{"type":"Point","coordinates":[-83.501935854999942,35.68911607800004]},"properties":{"OBJECTID_1":12,"OBJECTID":12,"LOC_NAME":"NEON Tower","TRAIL":"Twin Creeks Trail","ROAD":"Cherokee Orchard Road","NOTES":" ","ELEVATION":1890,"X_COORD":273602,"Y_COORD":3952352,"LON":-83.501931799999994,"LAT":35.689109199999997,"DATAACCESS":"Internal NPS Only","MAPMETHOD":"Unknown","SOURCEDATE":" ","XYACCURACY":"\u003e=1m and \u003c5m","VALID_RESU":"Certified","GlobalID":"db9a4c74-474d-4db0-a070-2aa5dddb93c6"}}]
}